0 RELAY 1 (A-15)
1   503U 62068A   20227.52928642 -.00000027 +00000-0 +00000-0 0  9991
2   503 047.5026 274.2760 2838071 152.3375 355.3327 07.78155458639452
0 TELSTAR 2 (A-41)
1   573U 63013A   20227.65171171 -.00000066  00000-0 -12832-3 0  9993
2   573  42.7610  74.6027 4009944  74.9721 346.7589  6.39262759449999
0 VELA 2
1   674U 63039A   20228.70664606 -.00000113  00000-0  00000+0 0  9992
2   674  37.9583 148.7091 2759071 129.8593   0.8817  0.22196831 46109
0 VELA 1
1   692U 63039C   20215.49760443 -.00000863  00000-0  00000+0 0  9992
2   692  16.5048 319.1636 5498236 250.4285 359.4746  0.22104569 45821
0 RELAY 2
1   737U 64003A   20227.44221760 -.00000020 +00000-0 +00000-0 0  9992
2   737 046.4412 225.9133 2586937 150.5315 227.0061 07.39527820528304
0 ELEKTRON 1
1   746U 64006A   20227.31410252 +.00000345 +00000-0 +10818-3 0  9997
2   746 060.8367 178.9652 3033221 041.9556 337.7678 09.03749784873911
0 ELEKTRON 3
1   829U 64038A   20227.53400606 +.00000192 +00000-0 +65511-4 0  9991
2   829 060.7986 252.1750 2982519 141.9804 243.4666 09.14043372819880
0 OPS 3662 (VELA 3)
1   836U 64040A   20199.40986224 -.00000583  00000-0  00000+0 0  9993
2   836  31.9512 260.0245 8682529 232.2436 359.6472  0.23922666 48915
0 OPS 3674 (VELA 4)
1   837U 64040B   20215.91075636 -.00000314  00000-0  00000+0 0  9997
2   837  40.6134 163.0439 5214297 316.3058 359.8281  0.24000800 49171
0 OGO 1
1   879U 64054A   20225.83555154 -.00000913  00000-0  00000+0 0  9993
2   879  55.3215 307.7052 9153769 205.5067  33.1990  0.37790629 21782
0 LES 2
1  1360U 65034B   20227.28448846 -.00000026 +00000-0 +00000-0 0  9994
2  1360 032.1029 169.3899 3963975 340.5614 007.7714 04.64817907938821
0 INTELSAT 2-F1
1  2514U 66096A   20227.70609341  .00000001  00000-0  00000+0 0  9992
2  2514  17.5793  95.6465 6404453 162.3615 238.4704  2.00536002270882
0 OV1-13
1  3173U 68026A   20227.25480255  .00000083  00000-0  16958-3 0  9993
2  3173  99.9823  65.7351 3818425 187.6753 164.3440  7.25389917383794
0 OV1-14
1  3174U 68026B   20228.16681924  .00000000  00000-0 -22065-5 0  9999
2  3174 100.0023  71.2820 4005534  81.6658  14.5738  6.96303154328141
0 OV1-19
1  3825U 69025C   20227.56036218 -.00000007 +00000-0 +12637-4 0  9995
2  3825 104.7352 095.7283 2690945 057.4242 325.8607 09.55893605781248
0 COSMOS 520
1  6192U 72072A   20225.10451306  .00000040  00000-0  00000+0 0  9990
2  6192  72.9679 298.2178 4319582 255.2336  55.2097  2.01323979352188
0 OPS 7724
1  6791U 73056A   20227.31222057  .00000547  00000-0  15117-2 0  9992
2  6791  62.3934 316.3875 7313626 261.7847  17.4993  2.00634195  6816
0 COSMOS 606
1  6916U 73084A   20228.26397272 -.00000569  00000-0  00000+0 0  9996
2  6916  71.7193 163.9090 5819063 198.2343 352.3701  2.00794318342747
0 MOLNIYA 2-9
1  7276U 74026A   20228.23361502 -.00000025  00000-0  00000+0 0  9994
2  7276  64.0889 330.1751 6783594 287.5456  13.1034  2.45095184232937
0 MOLNIYA 2-10
1  7376U 74056A   20228.20027281 -.00000638  00000-0  00000+0 0  9998
2  7376  63.5545 162.4836 6705836 291.9526  12.2417  2.01092982336903
0 COSMOS 706
1  7625U 75007A   20227.23857980 -.00000732  00000-0  00000+0 0  9996
2  7625  66.8509 343.4860 6054995  16.1675 356.6701  2.00378478193862
0 MOLNIYA 1-29
1  7780U 75036A   20227.26028687 +.00000026 +00000-0 -25182-2 0  9994
2  7780 063.0316 302.7260 7343710 288.6000 009.6806 02.00609329332134
0 MOLNIYA 2-14
1  8195U 75081A   20227.16874821 -.00000537 +00000-0 -71692-2 0  9998
2  8195 063.1595 270.4158 7247409 293.3476 009.1726 02.02112032329325
0 MOLNIYA 1-32
1  8601U 76006A   20227.11074981 +.00001472 +00000-0 +76539-3 0  9995
2  8601 062.7580 040.7267 7415954 279.6409 011.0667 01.99969883039266
0 COSMOS 862
1  9495U 76105A   20227.77659415 -.00000660  00000-0  00000+0 0  9995
2  9495  69.7360 170.9674 5781725 254.5015  37.6746  2.00685727198908
0 MOLNIYA 1-36
1  9880U 77021A   20228.41960042 -.00000617  00000-0 -52190-4 0  9999
2  9880  62.5641  11.1267 7474382 285.4471   9.4807  2.00335619216001
0 ESA/GOES
1  9931U 77029A   20227.77916741 -.00000177  00000-0  00000+0 0  9997
2  9931  27.5429  72.6597 6609119  23.7363 356.4881  1.96176107310035
0 COSMOS 917
1 10059U 77047A   20227.61303668  .00000177  00000-0  00000+0 0  9990
2 10059  62.6786 179.6808 7161104  41.9909 354.6422  2.00625608316435
0 COSMOS 931
1 10150U 77068A   20225.63570576  .00000720  00000-0  00000+0 0  9993
2 10150  68.6563 176.9385 6088905  21.9988 110.6063  2.00414430315920
0 MOLNIYA 3-8
1 10455U 77105A   20226.64681432 -.00000963 +00000-0 -87714-3 0  9991
2 10455 062.3137 102.2852 7287459 277.0588 012.5864 02.00479578313643
0 MOLNIYA 1-40
1 10925U 78055A   20226.76795988 -.00000513 +00000-0 +00000-0 0  9993
2 10925 062.5231 139.6393 7065715 278.2727 013.7900 02.00617533309197
0 COSMOS 1024
1 10970U 78066A   20227.12151293 +.00000040 +00000-0 +00000-0 0  9995
2 10970 063.0467 263.5825 6789151 030.0840 355.7349 02.00477159308628
0 MOLNIYA 3-10
1 11057U 78095A   20227.09396160 +.00000314 +00000-0 +15446-3 0  9991
2 11057 062.8081 293.9498 5939951 299.9109 014.3512 04.09694106356183
0 GORIZONT 1
1 11158U 78118A   20226.37466910 -.00000222 +00000-0 +00000-0 0  9996
2 11158 012.0057 232.4509 3586200 244.3047 074.4129 01.00283138101540
0 AYAME 1 (ECS 1)
1 11261U 79009A   20227.40190258 -.00000129 +00000-0 +00000-0 0  9991
2 11261 009.8972 057.1790 3631352 261.0528 051.1862 01.68578484140193
0 COSMOS 1109
1 11417U 79058A   20225.16263739 -.00000712  00000-0  00000+0 0  9991
2 11417  71.0670 294.9443 5621415 274.7198  26.7481  2.01399801190858
0 COSMOS 1124
1 11509U 79077A   20227.09438738 +.00001309 +00000-0 +00000-0 0  9994
2 11509 062.9102 220.4230 6935418 043.3065 353.9024 02.00957898300566
0 SATCOM 3
1 11635U 79101A   20228.40700352 -.00000124  00000-0  00000+0 0  9996
2 11635   9.0795 300.7852 4814918  55.2144   0.1401  1.82527463185041
0 AYAME 2 (ECS-2)
1 11715U 80018A   20228.47777821 -.00000111  00000-0  00000+0 0  9992
2 11715   6.9743 215.0686 4362606 317.3937 178.3316  1.75494319197609
0 COSMOS 1191
1 11871U 80057A   20228.44489789 -.00000516  00000-0  00000+0 0  9997
2 11871  65.8763 247.2194 5878975  49.1268 348.7519  2.00948303200663
0 MOLNIYA 3-13
1 11896U 80063A   20225.02215005 -.00000086  00000-0  00000+0 0  9992
2 11896  62.5894 221.7439 7129932 275.7721  14.0259  2.00604245293618
0 COSMOS 1217
1 12032U 80085A   20224.50280518 -.00000024 +00000-0 +00000-0 0  9995
2 12032 069.7358 293.6299 6327696 315.7173 008.5385 02.00901689239293
0 COSMOS 1223
1 12078U 80095A   20227.23313088 -.00000176  00000-0  00000+0 0  9995
2 12078  70.6835 131.6733 5557034  10.2273 158.6734  2.00665005290804
0 OPS 5805
1 12093U 80100A   20227.01143440 -.00001355  00000-0  00000+0 0  9998
2 12093  63.4989  77.2813 6951250 277.5302  14.7896  2.00868195  9348
0 MOLNIYA 1-49
1 12156U 81009A   20227.37518235  .00001178  00000-0 -41952-2 0  9991
2 12156  61.9922 264.9392 7214291 253.3142  22.2706  2.05693990207693
0 KIKU 3 (ETS 4)
1 12295U 81012A   20227.72418296  .00002350  00000-0  40532-3 0  9990
2 12295  28.4509  27.5025 5012878 186.0358 164.4556  5.59395513517898
0 COSMOS 1247
1 12303U 81016A   20227.26585471 -.00000883 +00000-0 +00000-0 0  9996
2 12303 066.5454 167.4612 6583910 028.6842 355.2627 02.02507024291981
0 COSMOS 1261
1 12376U 81031A   20227.28306203 -.00000182 +00000-0 +00000-0 0  9991
2 12376 068.2522 222.0085 5672311 043.6661 349.3459 02.00772162184643
0 CAT 3
1 12546U 81057C   20227.01611170 +.00001855 +00000-0 +23810-3 0  9995
2 12546 010.2558 009.6304 6022153 203.5514 110.1850 04.02719139321684
0 DYNAMICS EXPLORER 1
1 12624U 81070A   20227.86073347 -.00000004  00000-0 -28281-3 0  9992
2 12624  90.2334  35.0660 6249151 197.0574 125.1671  3.52504763650031
0 COSMOS 1285
1 12627U 81071A   20228.01728515  .00000623  00000-0  00000+0 0  9998
2 12627  68.0416 227.6512 5744205  43.7962 355.0152  1.98052890204298
0 COSMOS 1305
1 12818U 81088A   20227.17484426 -.00000023  00000-0  16941-4 0  9995
2 12818  63.1012  69.4581 4719076 222.0424  90.1698  5.46077154776325
0 COSMOS 1317
1 12933U 81108A   20227.79633543  .00000325  00000-0  00000+0 0  9998
2 12933  71.5785 194.9546 5180069  22.4029 126.8109  2.00302412283553
0 CAT 4
1 13011U 81122B   20227.08310453  .00000404  00000-0  12660-3 0  9993
2 13011  10.7250  20.2167 6619994 262.0552  23.9133  3.15516154292248
0 MOLNIYA 1-52
1 13012U 81123A   20226.52641847  .00000923  00000-0  00000+0 0  9994
2 13012  63.4314  19.2447 7268866 248.6913  24.3551  2.00813767283145
0 MOLNIYA 1-53
1 13070U 82015A   20227.35654873 +.00001685 +00000-0 +46048-3 0  9996
2 13070 062.3661 310.8788 7438848 276.9558 011.7344 02.00475429281763
0 COSMOS 1341
1 13080U 82016A   20227.46968928 +.00000288 +00000-0 +00000-0 0  9992
2 13080 067.5659 139.5100 6601880 013.8202 357.8309 02.00673061191973
0 COSMOS 1348
1 13124U 82029A   20227.44212927  .00000170  00000-0  00000+0 0  9993
2 13124  71.8354 225.2626 4752184  33.5948 100.7038  2.00384261280655
0 COSMOS 1367
1 13205U 82045A   20227.28231859 -.00000545 +00000-0 +00000-0 0  9996
2 13205 070.7944 159.7619 5594483 026.2223 094.4876 02.00497630280040
0 COSMOS 1382
1 13295U 82064A   20226.79441853 -.00000785 +00000-0 +00000-0 0  9994
2 13295 066.6629 003.7489 6266817 047.7159 350.6010 02.00830474237765
0 MOLNIYA 3-20
1 13875U 83015A   20227.65780013 -.00000430  00000-0  00000+0 0  9991
2 13875  63.5251  92.6785 7186409 255.4341  21.4739  2.00843940210272
0 MOLNIYA 1-56
1 13890U 83019A   20225.13760948 +.00001437 +00000-0 +00000-0 0  9996
2 13890 063.1883 118.1938 7165040 260.4717 219.5971 01.99885008273119
0 OV2-3
1 13912U 65108V   20227.79892569  .00002481  00000-0  31097-3 0  9992
2 13912  26.6184  57.5517 5575423 174.6825 195.5721  4.71291674464723
